OBJECT_NAME,OBJECT_ID,EPOCH,MEAN_MOTION,ECCENTRICITY,INCLINATION,RA_OF_ASC_NODE,ARG_OF_PERICENTER,MEAN_ANOMALY,EPHEMERIS_TYPE,CLASSIFICATION_TYPE,NORAD_CAT_ID,ELEMENT_SET_NO,REV_AT_EPOCH,BSTAR,MEAN_MOTION_DOT,MEAN_MOTION_DDOT
LEMUR-2-STARLIGHT,2025-276DY,2026-07-09T03:06:11.781792,14.99306207,.00147642,97.5228,260.0177,64.9575,295.3180,0,U,66783,999,3348,.34755603E-3,.4197E-4,0
LEMUR-2-TARTIFLETTE,2025-276DZ,2026-07-09T03:03:48.775104,14.99294218,.00137939,97.5229,260.0239,72.8301,287.4432,0,U,66784,999,3348,.28474227E-3,.3426E-4,0
LEMUR-2-VUKASIN,2025-276EA,2026-07-08T18:28:02.251200,15.00508276,.00040519,97.5244,260.0251,73.4291,286.7378,0,U,66785,999,3338,.27693947E-3,.3433E-4,0
LEMUR-2-HOTSPUR-TOM,2025-276EB,2026-07-08T23:42:58.355424,14.99200748,.00138758,97.5219,259.8657,64.3983,295.8673,0,U,66786,999,3339,.29942555E-3,.3597E-4,0
LEMUR-2-MYRA,2025-276EC,2026-07-09T14:26:30.857856,15.00547888,.0018574,97.5217,260.7505,71.1590,289.1646,0,U,66787,999,3357,.3374E-3,.4214E-4,0
LEMUR-2 FIKRETDENGIZ,2026-004A,2026-07-09T17:20:41.872704,14.88491309,.0010439,97.8024,188.9369,71.1066,289.1282,0,U,67363,999,2663,.26761E-3,.2433E-4,0
TWILIGHT-1 OBJECT B,2026-004B,2026-07-08T22:48:13.243392,14.87779263,.00100613,97.8069,188.1805,63.6748,296.5501,0,U,67364,999,2652,.15152187E-3,.133E-4,0
LEMUR-2-MARIO-SOUSA,2026-004C,2026-07-09T16:52:48.118080,14.88699873,.0010085,97.7997,188.9129,72.3315,287.9002,0,U,67365,999,2664,.27192E-3,.2486E-4,0
LEMUR-2-SONNENBLUME,2026-004E,2026-07-08T23:10:37.500384,14.88433763,.00096572,97.7994,188.1619,75.6747,284.5541,0,U,67367,999,2653,.1770761E-3,.1589E-4,0
LEMUR-2-WOBLER,2026-004F,2026-07-08T22:56:39.178464,14.88670933,.00098675,97.8049,188.2967,67.3819,292.8441,0,U,67368,999,2653,.26776253E-3,.2446E-4,0
LEMUR-2-GRAM-E-SUE,2026-004H,2026-07-08T22:44:41.723232,14.88571655,.00088216,97.7979,188.1606,78.1086,282.1119,0,U,67370,999,2653,.19485034E-3,.176E-4,0
LEMUR-2-KATIE,2026-004AA,2026-07-09T17:12:57.933216,14.90219671,.0003889,97.8041,189.4514,45.7601,314.3936,0,U,67387,999,2666,.30258E-3,.2879E-4,0
LEMUR-2-HCS-BAZUS,2026-004AB,2026-07-09T17:10:41.164608,14.90243096,.0003374,97.8032,189.4291,46.2274,313.9222,0,U,67388,999,2666,.15072E-3,.1407E-4,0
